*******************************************************************************
JPL/HORIZONS               859 Bouzareah (A916 TD)         2023-Sep-04 11:08:48
Rec #:     859 (+COV) Soln.date: 2023-Aug-24_21:47:30   # obs: 4913 (1916-2023)
 
IAU76/J2000 helio. ecliptic osc. elements (au, days, deg., period=Julian yrs):
 
  EPOCH=  2457116.5 ! 2015-Apr-04.00 (TDB)         Residual RMS= .22251
   EC= .1057178067950674   QR= 2.88537276056155    TP= 2457119.657822778
   OM= 35.81613105414595   W=  18.25909942538995   IN= 13.51094667908636
   A= 3.226467867173938    MA= 359.4629672013245   ADIST= 3.567562973786325
   PER= 5.79561            N= .170064261           ANGMOM= .030725896
   DAN= 2.89933            DDN= 3.54645            L= 53.6021652
   B= 4.1978086            MOID= 1.89988005        TP= 2015-Apr-07.1578227780
 
Asteroid physical parameters (km, seconds, rotational period in hours):
   GM= n.a.                RAD= 32.7085            ROTPER= 23.2
   H= 9.79                 G= .150                 B-V= n.a.
                           ALBEDO= .031            STYP= n.a.

ASTEROID comments: 
1: soln ref.= JPL#102, OCC=0
2: source=ORB
*******************************************************************************


*******************************************************************************
Ephemeris / API_USER Mon Sep  4 11:08:48 2023 Pasadena, USA      / Horizons
*******************************************************************************
Target body name: 859 Bouzareah (A916 TD)         {source: JPL#102}
Center body name: Solar System Barycenter (0)     {source: DE441}
Center-site name: BODY CENTER
*******************************************************************************
Start time      : A.D. 2023-Aug-12 00:00:00.0000 TDB
Stop  time      : A.D. 2023-Aug-13 00:00:00.0000 TDB
Step-size       : 2880 minutes
*******************************************************************************
Center geodetic : 0.0, 0.0, 0.0                   {E-lon(deg),Lat(deg),Alt(km)}
Center cylindric: 0.0, 0.0, 0.0                   {E-lon(deg),Dxy(km),Dz(km)}
Center radii    : (undefined)
Small perturbers: Yes                             {source: SB441-N16}
Output units    : KM-S
Calendar mode   : Mixed Julian/Gregorian
Output type     : GEOMETRIC cartesian states
Output format   : 2 (position and velocity)
Reference frame : Ecliptic of J2000.0
*******************************************************************************
Initial IAU76/J2000 heliocentric ecliptic osculating elements (au, days, deg.):
  EPOCH=  2457116.5 ! 2015-Apr-04.00 (TDB)         Residual RMS= .22251        
   EC= .1057178067950674   QR= 2.88537276056155    TP= 2457119.657822778       
   OM= 35.81613105414595   W=  18.25909942538995   IN= 13.51094667908636       
  Equivalent ICRF heliocentric cartesian coordinates (au, au/d):
   X= 1.734162008117160E+00  Y= 2.026504488272446E+00  Z= 1.100656971796121E+00
  VX=-8.392596050800663E-03 VY= 4.663449919420427E-03 VZ= 4.605778883310451E-03
Asteroid physical parameters (km, seconds, rotational period in hours):        
   GM= n.a.                RAD= 32.7085            ROTPER= 23.2                
   H= 9.79                 G= .150                 B-V= n.a.                   
                           ALBEDO= .031            STYP= n.a.                  
*******************************************************************************
JDTDB
   X     Y     Z
   VX    VY    VZ
*******************************************************************************
$$SOE
2460168.500000000 = A.D. 2023-Aug-12 00:00:00.0000 TDB 
 X =-4.267286538538335E+08 Y =-3.189735552307104E+08 Z =-2.580691648599133E+06
 VX= 8.220368235510779E+00 VY=-1.204210664589251E+01 VZ=-3.496693102164898E+00
$$EOE
*******************************************************************************
 
TIME

  Barycentric Dynamical Time ("TDB" or T_eph) output was requested. This
continuous coordinate time is equivalent to the relativistic proper time
of a clock at rest in a reference frame co-moving with the solar system
barycenter but outside the system's gravity well. It is the independent
variable in the solar system relativistic equations of motion.

  TDB runs at a uniform rate of one SI second per second and is independent
of irregularities in Earth's rotation.
 
CALENDAR SYSTEM

  Mixed calendar mode was active such that calendar dates after AD 1582-Oct-15
(if any) are in the modern Gregorian system. Dates prior to 1582-Oct-5 (if any)
are in the Julian calendar system, which is automatically extended for dates
prior to its adoption on 45-Jan-1 BC.  The Julian calendar is useful for
matching historical dates. The Gregorian calendar more accurately corresponds
to the Earth's orbital motion and seasons. A "Gregorian-only" calendar mode is
available if such physical events are the primary interest.

REFERENCE FRAME AND COORDINATES

  Ecliptic at the standard reference epoch

    Reference epoch: J2000.0
    X-Y plane: adopted Earth orbital plane at the reference epoch
               Note: IAU76 obliquity of 84381.448 arcseconds wrt ICRF X-Y plane
    X-axis   : ICRF
    Z-axis   : perpendicular to the X-Y plane in the directional (+ or -) sense
               of Earth's north pole at the reference epoch.

  Symbol meaning:

    JDTDB    Julian Day Number, Barycentric Dynamical Time
      X      X-component of position vector (km)
      Y      Y-component of position vector (km)
      Z      Z-component of position vector (km)
      VX     X-component of velocity vector (km/sec)                           
      VY     Y-component of velocity vector (km/sec)                           
      VZ     Z-component of velocity vector (km/sec)                           

ABERRATIONS AND CORRECTIONS

 Geometric state vectors have NO corrections or aberrations applied.

Computations by ...

    Solar System Dynamics Group, Horizons On-Line Ephemeris System
    4800 Oak Grove Drive, Jet Propulsion Laboratory
    Pasadena, CA  91109   USA

    General site: https://ssd.jpl.nasa.gov/
    Mailing list: https://ssd.jpl.nasa.gov/email_list.html
    System news : https://ssd.jpl.nasa.gov/horizons/news.html
    User Guide  : https://ssd.jpl.nasa.gov/horizons/manual.html
    Connect     : browser        https://ssd.jpl.nasa.gov/horizons/app.html#/x
                  API            https://ssd-api.jpl.nasa.gov/doc/horizons.html
                  command-line   telnet ssd.jpl.nasa.gov 6775
                  e-mail/batch   https://ssd.jpl.nasa.gov/ftp/ssd/hrzn_batch.txt
                  scripts        https://ssd.jpl.nasa.gov/ftp/ssd/SCRIPTS
    Author      : Jon.D.Giorgini@jpl.nasa.gov
*******************************************************************************
